{
    "links": {
        "self": "http://www.neowsapp.com/rest/v1/neo/3313220?api_key=iIulBulltgU6a56xZRHN4H3l9WmuAYTsLGpBGhQ2"
    },
    "id": "3313220",
    "neo_reference_id": "3313220",
    "name": "(2006 BF)",
    "designation": "2006 BF",
    "nasa_jpl_url": "http://ssd.jpl.nasa.gov/sbdb.cgi?sstr=3313220",
    "absolute_magnitude_h": 23.6,
    "estimated_diameter": {
        "kilometers": {
            "estimated_diameter_min": 0.0506471459,
            "estimated_diameter_max": 0.1132504611
        },
        "meters": {
            "estimated_diameter_min": 50.6471458835,
            "estimated_diameter_max": 113.2504610618
        },
        "miles": {
            "estimated_diameter_min": 0.0314706677,
            "estimated_diameter_max": 0.0703705522
        },
        "feet": {
            "estimated_diameter_min": 166.1651821003,
            "estimated_diameter_max": 371.5566426699
        }
    },
    "is_potentially_hazardous_asteroid": false,
    "close_approach_data": [
        {
            "close_approach_date": "1998-09-10",
            "close_approach_date_full": "1998-Sep-10 21:43",
            "epoch_date_close_approach": 905463780000,
            "relative_velocity": {
                "kilometers_per_second": "18.091165906",
                "kilometers_per_hour": "65128.1972614477",
                "miles_per_hour": "40468.1290150368"
            },
            "miss_distance": {
                "astronomical": "0.3363083048",
                "lunar": "130.8239305672",
                "kilometers": "50311006.061390776",
                "miles": "31261809.5371776688"
            },
            "orbiting_body": "Earth"
        },
        {
            "close_approach_date": "2005-09-06",
            "close_approach_date_full": "2005-Sep-06 04:25",
            "epoch_date_close_approach": 1125980700000,
            "relative_velocity": {
                "kilometers_per_second": "3.7761749076",
                "kilometers_per_hour": "13594.2296673613",
                "miles_per_hour": "8446.9256508112"
            },
            "miss_distance": {
                "astronomical": "0.4113042323",
                "lunar": "159.9973463647",
                "kilometers": "61530237.074065201",
                "miles": "38233116.4246577338"
            },
            "orbiting_body": "Earth"
        },
        {
            "close_approach_date": "2006-01-11",
            "close_approach_date_full": "2006-Jan-11 15:18",
            "epoch_date_close_approach": 1136992680000,
            "relative_velocity": {
                "kilometers_per_second": "9.0462176165",
                "kilometers_per_hour": "32566.3834194941",
                "miles_per_hour": "20235.4841864073"
            },
            "miss_distance": {
                "astronomical": "0.0165987928",
                "lunar": "6.4569303992",
                "kilometers": "2483144.047451336",
                "miles": "1542954.1633509968"
            },
            "orbiting_body": "Earth"
        },
        {
            "close_approach_date": "2104-02-03",
            "close_approach_date_full": "2104-Feb-03 07:37",
            "epoch_date_close_approach": 4231467420000,
            "relative_velocity": {
                "kilometers_per_second": "16.7587942064",
                "kilometers_per_hour": "60331.6591430026",
                "miles_per_hour": "37487.7467602729"
            },
            "miss_distance": {
                "astronomical": "0.2716789314",
                "lunar": "105.6831043146",
                "kilometers": "40642589.461316118",
                "miles": "25254134.0415057084"
            },
            "orbiting_body": "Earth"
        }
    ],
    "orbital_data": {
        "orbit_id": "13",
        "orbit_determination_date": "2017-04-06 09:09:23",
        "first_observation_date": "2006-01-20",
        "last_observation_date": "2006-01-30",
        "data_arc_in_days": 10,
        "observations_used": 65,
        "orbit_uncertainty": "8",
        "minimum_orbit_intersection": ".0122251",
        "jupiter_tisserand_invariant": "4.511",
        "epoch_osculation": "2453757.5",
        "eccentricity": ".3907502385239506",
        "semi_major_axis": "1.471448928535117",
        "inclination": "5.004326226412008",
        "ascending_node_longitude": "101.8968369739582",
        "orbital_period": "651.9528925052728",
        "perihelion_distance": ".8964799087342086",
        "perihelion_argument": "322.0905350520202",
        "aphelion_distance": "2.046417948336025",
        "perihelion_time": "2453710.864917089557",
        "mean_anomaly": "25.7512928322865",
        "mean_motion": ".5521871352033129",
        "equinox": "J2000",
        "orbit_class": {
            "orbit_class_type": "APO",
            "orbit_class_description": "Near-Earth asteroid orbits which cross the Earth’s orbit similar to that of 1862 Apollo",
            "orbit_class_range": "a (semi-major axis) > 1.0 AU; q (perihelion) < 1.017 AU"
        }
    },
    "is_sentry_object": false
}